DMSP 5D-3 F16 (USA 172) 
1 28054U 03048A   26173.88031250 -.00000025  00000+0  10671-4 0  9996
2 28054  98.9888 197.7464 0007979 125.8713 224.2627 14.14483297170284
METEOSAT-9 (MSG-2)      
1 28912U 05049B   26173.82493549  .00000121  00000+0  00000+0 0  9995
2 28912   9.3746  54.1148 0001933 351.8008 207.7360  1.00275427  7052
DMSP 5D-3 F17 (USA 191) 
1 29522U 06050A   26173.82659930  .00000001  00000+0  22994-4 0  9992
2 29522  98.7378 180.2814 0010970  44.7773 315.4284 14.14993469 13222
FENGYUN 3A              
1 32958U 08026A   26173.54504678  .00000028  00000+0  33987-4 0  9994
2 32958  98.6884 114.2781 0009752 109.8026 250.4202 14.19571999936160
GOES 14                 
1 35491U 09033A   26173.84333561 -.00000309  00000+0  00000+0 0  9990
2 35491   1.7055  82.9838 0002063  15.0231 255.1544  1.00109515  6647
DMSP 5D-3 F18 (USA 210) 
1 35951U 09057A   26173.79834877  .00000191  00000+0  12180-3 0  9991
2 35951  98.9039 154.5553 0010029 231.8828 128.1442 14.14899530860386
EWS-G2 (GOES 15)        
1 36411U 10008A   26173.75724698  .00000023  00000+0  00000+0 0  9994
2 36411   1.2934  82.7807 0005100  42.1168 122.2611  1.00267479 59696
COMS 1                  
1 36744U 10032A   26172.97490339  .00000092  00000+0  00000+0 0  9991
2 36744   4.8182  75.3013 0011740  12.4860 227.6786  0.99164096 51134
FENGYUN 3B              
1 37214U 10059A   26173.82519448 -.00000070  00000+0 -12835-4 0  9993
2 37214  98.9617 219.8638 0022249 168.0361 280.4009 14.14842670808220
SUOMI NPP               
1 37849U 11061A   26173.83845449  .00000036  00000+0  37908-4 0  9993
2 37849  98.7953 114.6759 0001218 351.3406   8.7749 14.19518391759245
METEOSAT-10 (MSG-3)     
1 38552U 12035B   26173.81600878 -.00000006  00000+0  00000+0 0  9996
2 38552   4.6856  61.0002 0001644   4.0244 139.9662  1.00267513 50918
METOP-B                 
1 38771U 12049A   26173.82091277  .00000058  00000+0  46445-4 0  9996
2 38771  98.6501 225.2077 0001875   3.4281 356.6909 14.21440639714061
INSAT-3D                
1 39216U 13038B   26173.84151560 -.00000336  00000+0  00000+0 0  9996
2 39216   1.9416  82.4783 0000997 355.2731 265.7190  1.00273436 47138
FENGYUN 3C              
1 39260U 13052A   26173.83903819  .00000054  00000+0  48580-4 0  9998
2 39260  98.4982 147.4544 0014940  11.9004 348.2521 14.15756043659364
METEOR-M 2              
1 40069U 14037A   26173.84719333  .00000023  00000+0  29797-4 0  9993
2 40069  98.5119 149.3850 0006484  30.2400 329.9151 14.21462314620124
HIMAWARI-8              
1 40267U 14060A   26173.62991703 -.00000273  00000+0  00000+0 0  9997
2 40267   0.0252  63.1705 0001293  33.7058 181.3553  1.00270322 42811
FENGYUN 2G              
1 40367U 14090A   26173.76430670 -.00000302  00000+0  00000+0 0  9990
2 40367   5.6540  72.7533 0003633 154.7376  58.2738  1.00270194 42055
METEOSAT-11 (MSG-4)     
1 40732U 15034A   26173.81782880  .00000064  00000+0  00000+0 0  9998
2 40732   3.2147  71.0728 0002326 346.9573 156.9016  1.00264819  7275
ELEKTRO-L 2             
1 41105U 15074A   26174.02267148 -.00000118  00000+0  00000+0 0  9997
2 41105   6.7089  70.4550 0000787 274.2158 280.1524  1.00271043 38567
SENTINEL-3A             
1 41335U 16011A   26173.82695170  .00000066  00000+0  45497-4 0  9996
2 41335  98.6247 241.1296 0001423  98.4434 261.6908 14.26734004538864
INSAT-3DR               
1 41752U 16054A   26173.83055562 -.00000074  00000+0  00000+0 0  9998
2 41752   0.1207  86.3121 0010237 187.6813   9.9780  1.00272694 35876
HIMAWARI-9              
1 41836U 16064A   26173.84376895  .00000000  00000+0  00000+0 0  9996
2 41836   0.0171  11.1208 0001113  97.5317 246.8918  1.00269803 35267
GOES 16                 
1 41866U 16071A   26173.65262381 -.00000088  00000+0  00000+0 0  9997
2 41866   0.3560  85.5439 0000418 351.0410 324.4927  1.00271761 35152
FENGYUN 4A              
1 41882U 16077A   26173.84038894 -.00000355  00000+0  00000+0 0  9999
2 41882   2.3381  80.2311 0008446 153.2134 103.7823  1.00265950 34984
CYGFM05                 
1 41884U 16078A   26173.56605122  .00017852  00000+0  24027-3 0  9993
2 41884  34.9559 224.9652 0007679 202.4953 157.5435 15.56871882529597
CYGFM04                 
1 41885U 16078B   26173.45593698  .00022366  00000+0  24953-3 0  9990
2 41885  34.9313 193.1183 0007260 240.4852 119.5149 15.61760917529826
CYGFM02                 
1 41886U 16078C   26173.44646752  .00027516  00000+0  27202-3 0  9992
2 41886  34.9393 187.5625 0008244 241.9943 117.9950 15.64792677529994
CYGFM01                 
1 41887U 16078D   26173.48831275  .00018402  00000+0  24140-3 0  9995
2 41887  34.9390 226.4945 0007390 195.9777 164.0715 15.57553116529531
CYGFM08                 
1 41888U 16078E   26173.50264771  .00020597  00000+0  24357-3 0  9998
2 41888  34.9420 205.8375 0008955 225.6523 134.3469 15.60250257529802
CYGFM07                 
1 41890U 16078G   26173.39748565  .00019824  00000+0  23377-3 0  9998
2 41890  34.9435 194.8749 0007630 239.4198 120.5774 15.60342583529814
CYGFM03                 
1 41891U 16078H   26173.43249466  .00020559  00000+0  24246-3 0  9993
2 41891  34.9391 196.5775 0007141 228.5035 131.5077 15.60338564529799
