OBJECT_NAME,OBJECT_ID,EPOCH,MEAN_MOTION,ECCENTRICITY,INCLINATION,RA_OF_ASC_NODE,ARG_OF_PERICENTER,MEAN_ANOMALY,EPHEMERIS_TYPE,CLASSIFICATION_TYPE,NORAD_CAT_ID,ELEMENT_SET_NO,REV_AT_EPOCH,BSTAR,MEAN_MOTION_DOT,MEAN_MOTION_DDOT
DMSP 5D-3 F16 (USA 172),2003-048A,2026-06-22T21:07:39.000000,14.14483297,.00079793,98.9888,197.7464,125.8713,224.2627,0,U,28054,999,17028,.10671153E-4,-.25E-6,0
METEOSAT-9 (MSG-2),2005-049B,2026-06-22T19:47:54.426336,1.00275427,.00019334,9.3746,54.1148,351.8008,207.7360,0,U,28912,999,705,0,.121E-5,0
DMSP 5D-3 F17 (USA 191),2006-050A,2026-06-22T19:50:18.179520,14.14993469,.00109708,98.7378,180.2814,44.7773,315.4284,0,U,29522,999,1322,.22993654E-4,.1E-7,0
FENGYUN 3A,2008-026A,2026-06-22T13:04:52.041792,14.19571999,.00097525,98.6884,114.2781,109.8026,250.4202,0,U,32958,999,93616,.33986507E-4,.28E-6,0
GOES 14,2009-033A,2026-06-22T20:14:24.196704,1.00109515,.00020639,1.7055,82.9838,15.0231,255.1544,0,U,35491,999,664,0,-.309E-5,0
DMSP 5D-3 F18 (USA 210),2009-057A,2026-06-22T19:09:37.333728,14.14899530,.00100299,98.9039,154.5553,231.8828,128.1442,0,U,35951,999,86038,.12179843E-3,.191E-5,0
EWS-G2 (GOES 15),2010-008A,2026-06-22T18:10:26.139072,1.00267479,.00051,1.2934,82.7807,42.1168,122.2611,0,U,36411,999,5969,0,.23E-6,0
COMS 1,2010-032A,2026-06-21T23:23:51.652896,0.99164096,.00117404,4.8182,75.3013,12.4860,227.6786,0,U,36744,999,5113,0,.92E-6,0
FENGYUN 3B,2010-059A,2026-06-22T19:48:16.803072,14.14842670,.00222498,98.9617,219.8638,168.0361,280.4009,0,U,37214,999,80822,-.12834529E-4,-.7E-6,0
SUOMI NPP,2011-061A,2026-06-22T20:07:22.467936,14.19518391,.00012188,98.7953,114.6759,351.3406,8.7749,0,U,37849,999,75924,.379082E-4,.36E-6,0
METEOSAT-10 (MSG-3),2012-035B,2026-06-22T19:35:03.158592,1.00267513,.00016446,4.6856,61.0002,4.0244,139.9662,0,U,38552,999,5091,0,-.6E-7,0
METOP-B,2012-049A,2026-06-22T19:42:06.863328,14.21440639,.00018753,98.6501,225.2077,3.4281,356.6909,0,U,38771,999,71406,.46444594E-4,.58E-6,0
INSAT-3D,2013-038B,2026-06-22T20:11:46.947840,1.00273436,.00009976,1.9416,82.4783,355.2731,265.7190,0,U,39216,999,4713,0,-.336E-5,0
FENGYUN 3C,2013-052A,2026-06-22T20:08:12.899616,14.15756043,.001494,98.4982,147.4544,11.9004,348.2521,0,U,39260,999,65936,.48580457E-4,.54E-6,0
METEOR-M 2,2014-037A,2026-06-22T20:19:57.503712,14.21462314,.00064846,98.5119,149.3850,30.2400,329.9151,0,U,40069,999,62012,.29796972E-4,.23E-6,0
HIMAWARI-8,2014-060A,2026-06-22T15:07:04.831392,1.00270322,.00012934,0.0252,63.1705,33.7058,181.3553,0,U,40267,999,4281,0,-.273E-5,0
FENGYUN 2G,2014-090A,2026-06-22T18:20:36.098880,1.00270194,.00036337,5.6540,72.7533,154.7376,58.2738,0,U,40367,999,4205,0,-.302E-5,0
METEOSAT-11 (MSG-4),2015-034A,2026-06-22T19:37:40.408320,1.00264819,.00023269,3.2147,71.0728,346.9573,156.9016,0,U,40732,999,727,0,.64E-6,0
ELEKTRO-L 2,2015-074A,2026-06-23T00:32:38.815872,1.00271043,.0000787,6.7089,70.4550,274.2158,280.1524,0,U,41105,999,3856,0,-.118E-5,0
SENTINEL-3A,2016-011A,2026-06-22T19:50:48.626880,14.26734004,.00014234,98.6247,241.1296,98.4434,261.6908,0,U,41335,999,53886,.45496628E-4,.66E-6,0
INSAT-3DR,2016-054A,2026-06-22T19:56:00.005568,1.00272694,.00102379,0.1207,86.3121,187.6813,9.9780,0,U,41752,999,3587,0,-.74E-6,0
HIMAWARI-9,2016-064A,2026-06-22T20:15:01.637280,1.00269803,.00011133,0.0171,11.1208,97.5317,246.8918,0,U,41836,999,3526,0,0,0
GOES 16,2016-071A,2026-06-22T15:39:46.697184,1.00271761,.00004182,0.3560,85.5439,351.0410,324.4927,0,U,41866,999,3515,0,-.88E-6,0
FENGYUN 4A,2016-077A,2026-06-22T20:10:09.604416,1.00265950,.00084462,2.3381,80.2311,153.2134,103.7823,0,U,41882,999,3498,0,-.355E-5,0
CYGFM05,2016-078A,2026-06-22T13:35:06.825408,15.56871882,.00076799,34.9559,224.9652,202.4953,157.5435,0,U,41884,999,52959,.24026576E-3,.17852E-3,0
CYGFM04,2016-078B,2026-06-22T10:56:32.955072,15.61760917,.00072608,34.9313,193.1183,240.4852,119.5149,0,U,41885,999,52982,.24953299E-3,.22366E-3,0
CYGFM02,2016-078C,2026-06-22T10:42:54.793728,15.64792677,.00082446,34.9393,187.5625,241.9943,117.9950,0,U,41886,999,52999,.27202425E-3,.27516E-3,0
CYGFM01,2016-078D,2026-06-22T11:43:10.221600,15.57553116,.00073904,34.9390,226.4945,195.9777,164.0715,0,U,41887,999,52953,.24139526E-3,.18402E-3,0
CYGFM08,2016-078E,2026-06-22T12:03:48.762144,15.60250257,.00089552,34.9420,205.8375,225.6523,134.3469,0,U,41888,999,52980,.24356514E-3,.20597E-3,0
CYGFM07,2016-078G,2026-06-22T09:32:22.760160,15.60342583,.00076307,34.9435,194.8749,239.4198,120.5774,0,U,41890,999,52981,.2337695E-3,.19824E-3,0
CYGFM03,2016-078H,2026-06-22T10:22:47.538624,15.60338564,.00071411,34.9391,196.5775,228.5035,131.5077,0,U,41891,999,52979,.24246466E-3,.20559E-3,0
